HULIANWANG DIGUI-65     
1 65171U 25174H   26064.75023116  .00000051  00000+0  85805-4 0  9997
2 65171  86.4843 286.8480 0001228  88.4653 271.6621 13.24422376 27095
HULIANWANG DIGUI-66     
1 65172U 25174J   26064.74270155  .00000067  00000+0  12253-3 0  9997
2 65172  86.4879 286.9169 0001271  90.5371 269.5909 13.24422061 27095
HULIANWANG DIGUI-67     
1 65173U 25174K   26064.75784236  .00000055  00000+0  94661-4 0  9990
2 65173  86.4890 286.9454 0001263  88.8532 271.2746 13.24421650 27065
HULIANWANG DIGUI-68     
1 65228U 25178A   26064.78036609  .00000021  00000+0  15024-4 0  9991
2 65228  86.4942  48.4153 0002024  79.8017 280.3345 13.24423882 26621
HULIANWANG DIGUI-69     
1 65229U 25178B   26064.77312403  .00000022  00000+0  17230-4 0  9992
2 65229  86.4962  48.4527 0001963  81.0840 279.0516 13.24417717 26624
HULIANWANG DIGUI-70     
1 65230U 25178C   26064.76552520  .00000036  00000+0  48570-4 0  9995
2 65230  86.4901  48.3239 0002071  79.6094 280.5274 13.24418683 26624
HULIANWANG DIGUI-71     
1 65231U 25178D   26064.75794516  .00000053  00000+0  90272-4 0  9993
2 65231  86.4959  48.4409 0002015  80.8544 279.2818 13.24419601 26620
HULIANWANG DIGUI-72     
1 65232U 25178E   26064.75034782  .00000055  00000+0  94034-4 0  9998
2 65232  86.4942  48.4015 0002026  81.7135 278.4229 13.24420029 26627
HULIANWANG DIGUI-73     
1 65305U 25187A   26064.76546308 -.00000098  00000+0  56488-4 0  9991
2 65305  50.0037 216.7944 0001041 140.3680 219.7269 13.29342478 25946
HULIANWANG DIGUI-74     
1 65306U 25187B   26064.67355975 -.00000105  00000+0  41529-4 0  9999
2 65306  50.0080 217.0434 0001044 140.7907 219.3041 13.29342978 25930
HULIANWANG DIGUI-75     
1 65307U 25187C   26064.73209372 -.00000102  00000+0  46991-4 0  9991
2 65307  50.0072 216.6753 0001039 139.2239 220.8711 13.29341975 25944
HULIANWANG DIGUI-76     
1 65308U 25187D   26064.71557743 -.00000087  00000+0  79779-4 0  9990
2 65308  49.9996 217.1280 0001036 137.3341 222.7612 13.29339337 25937
HULIANWANG DIGUI-77     
1 65309U 25187E   26064.78225507 -.00000091  00000+0  70231-4 0  9997
2 65309  50.0030 216.8683 0001073 137.7901 222.3054 13.29341223 25944
HULIANWANG DIGUI-78     
1 65310U 25187F   26064.74048646 -.00000100  00000+0  50913-4 0  9998
2 65310  50.0096 216.7569 0001025 140.8186 219.2760 13.29341693 25947
HULIANWANG DIGUI-79     
1 65311U 25187G   26064.72362535 -.00000100  00000+0  51855-4 0  9999
2 65311  50.0026 217.2158 0001032 137.7520 222.3431 13.29343099 25937
HULIANWANG DIGUI-80     
1 65312U 25187H   26064.77387161 -.00000086  00000+0  81424-4 0  9995
2 65312  50.0016 216.8031 0001062 137.8732 222.2222 13.29341313 25946
