[{"OBJECT_NAME":"HULIANWANG DIGUI-65","OBJECT_ID":"2025-174H","EPOCH":"2026-03-05T18:00:19.972224","MEAN_MOTION":13.24422376,"ECCENTRICITY":0.0001228,"INCLINATION":86.4843,"RA_OF_ASC_NODE":286.848,"ARG_OF_PERICENTER":88.4653,"MEAN_ANOMALY":271.6621,"EPHEMERIS_TYPE":0,"CLASSIFICATION_TYPE":"U","NORAD_CAT_ID":65171,"ELEMENT_SET_NO":999,"REV_AT_EPOCH":2709,"BSTAR":8.5805e-5,"MEAN_MOTION_DOT":5.1e-7,"MEAN_MOTION_DDOT":0},{"OBJECT_NAME":"HULIANWANG DIGUI-66","OBJECT_ID":"2025-174J","EPOCH":"2026-03-05T17:49:29.413920","MEAN_MOTION":13.24422061,"ECCENTRICITY":0.0001271,"INCLINATION":86.4879,"RA_OF_ASC_NODE":286.9169,"ARG_OF_PERICENTER":90.5371,"MEAN_ANOMALY":269.5909,"EPHEMERIS_TYPE":0,"CLASSIFICATION_TYPE":"U","NORAD_CAT_ID":65172,"ELEMENT_SET_NO":999,"REV_AT_EPOCH":2709,"BSTAR":0.00012253,"MEAN_MOTION_DOT":6.7e-7,"MEAN_MOTION_DDOT":0},{"OBJECT_NAME":"HULIANWANG DIGUI-67","OBJECT_ID":"2025-174K","EPOCH":"2026-03-05T18:11:17.579904","MEAN_MOTION":13.2442165,"ECCENTRICITY":0.0001263,"INCLINATION":86.489,"RA_OF_ASC_NODE":286.9454,"ARG_OF_PERICENTER":88.8532,"MEAN_ANOMALY":271.2746,"EPHEMERIS_TYPE":0,"CLASSIFICATION_TYPE":"U","NORAD_CAT_ID":65173,"ELEMENT_SET_NO":999,"REV_AT_EPOCH":2706,"BSTAR":9.4661e-5,"MEAN_MOTION_DOT":5.5e-7,"MEAN_MOTION_DDOT":0},{"OBJECT_NAME":"HULIANWANG DIGUI-68","OBJECT_ID":"2025-178A","EPOCH":"2026-03-05T18:43:43.630176","MEAN_MOTION":13.24423882,"ECCENTRICITY":0.0002024,"INCLINATION":86.4942,"RA_OF_ASC_NODE":48.4153,"ARG_OF_PERICENTER":79.8017,"MEAN_ANOMALY":280.3345,"EPHEMERIS_TYPE":0,"CLASSIFICATION_TYPE":"U","NORAD_CAT_ID":65228,"ELEMENT_SET_NO":999,"REV_AT_EPOCH":2662,"BSTAR":1.5024e-5,"MEAN_MOTION_DOT":2.1e-7,"MEAN_MOTION_DDOT":0},{"OBJECT_NAME":"HULIANWANG DIGUI-69","OBJECT_ID":"2025-178B","EPOCH":"2026-03-05T18:33:17.916192","MEAN_MOTION":13.24417717,"ECCENTRICITY":0.0001963,"INCLINATION":86.4962,"RA_OF_ASC_NODE":48.4527,"ARG_OF_PERICENTER":81.084,"MEAN_ANOMALY":279.0516,"EPHEMERIS_TYPE":0,"CLASSIFICATION_TYPE":"U","NORAD_CAT_ID":65229,"ELEMENT_SET_NO":999,"REV_AT_EPOCH":2662,"BSTAR":1.723e-5,"MEAN_MOTION_DOT":2.2e-7,"MEAN_MOTION_DDOT":0},{"OBJECT_NAME":"HULIANWANG DIGUI-70","OBJECT_ID":"2025-178C","EPOCH":"2026-03-05T18:22:21.377280","MEAN_MOTION":13.24418683,"ECCENTRICITY":0.0002071,"INCLINATION":86.4901,"RA_OF_ASC_NODE":48.3239,"ARG_OF_PERICENTER":79.6094,"MEAN_ANOMALY":280.5274,"EPHEMERIS_TYPE":0,"CLASSIFICATION_TYPE":"U","NORAD_CAT_ID":65230,"ELEMENT_SET_NO":999,"REV_AT_EPOCH":2662,"BSTAR":4.857e-5,"MEAN_MOTION_DOT":3.6e-7,"MEAN_MOTION_DDOT":0},{"OBJECT_NAME":"HULIANWANG DIGUI-71","OBJECT_ID":"2025-178D","EPOCH":"2026-03-05T18:11:26.461824","MEAN_MOTION":13.24419601,"ECCENTRICITY":0.0002015,"INCLINATION":86.4959,"RA_OF_ASC_NODE":48.4409,"ARG_OF_PERICENTER":80.8544,"MEAN_ANOMALY":279.2818,"EPHEMERIS_TYPE":0,"CLASSIFICATION_TYPE":"U","NORAD_CAT_ID":65231,"ELEMENT_SET_NO":999,"REV_AT_EPOCH":2662,"BSTAR":9.0272e-5,"MEAN_MOTION_DOT":5.3e-7,"MEAN_MOTION_DDOT":0},{"OBJECT_NAME":"HULIANWANG DIGUI-72","OBJECT_ID":"2025-178E","EPOCH":"2026-03-05T18:00:30.051648","MEAN_MOTION":13.24420029,"ECCENTRICITY":0.0002026,"INCLINATION":86.4942,"RA_OF_ASC_NODE":48.4015,"ARG_OF_PERICENTER":81.7135,"MEAN_ANOMALY":278.4229,"EPHEMERIS_TYPE":0,"CLASSIFICATION_TYPE":"U","NORAD_CAT_ID":65232,"ELEMENT_SET_NO":999,"REV_AT_EPOCH":2662,"BSTAR":9.4034e-5,"MEAN_MOTION_DOT":5.5e-7,"MEAN_MOTION_DDOT":0},{"OBJECT_NAME":"HULIANWANG DIGUI-73","OBJECT_ID":"2025-187A","EPOCH":"2026-03-05T18:22:16.010112","MEAN_MOTION":13.29342478,"ECCENTRICITY":0.0001041,"INCLINATION":50.0037,"RA_OF_ASC_NODE":216.7944,"ARG_OF_PERICENTER":140.368,"MEAN_ANOMALY":219.7269,"EPHEMERIS_TYPE":0,"CLASSIFICATION_TYPE":"U","NORAD_CAT_ID":65305,"ELEMENT_SET_NO":999,"REV_AT_EPOCH":2594,"BSTAR":5.6488e-5,"MEAN_MOTION_DOT":-9.8e-7,"MEAN_MOTION_DDOT":0},{"OBJECT_NAME":"HULIANWANG DIGUI-74","OBJECT_ID":"2025-187B","EPOCH":"2026-03-05T16:09:55.562400","MEAN_MOTION":13.29342978,"ECCENTRICITY":0.0001044,"INCLINATION":50.008,"RA_OF_ASC_NODE":217.0434,"ARG_OF_PERICENTER":140.7907,"MEAN_ANOMALY":219.3041,"EPHEMERIS_TYPE":0,"CLASSIFICATION_TYPE":"U","NORAD_CAT_ID":65306,"ELEMENT_SET_NO":999,"REV_AT_EPOCH":2593,"BSTAR":4.1529e-5,"MEAN_MOTION_DOT":-1.05e-6,"MEAN_MOTION_DDOT":0},{"OBJECT_NAME":"HULIANWANG DIGUI-75","OBJECT_ID":"2025-187C","EPOCH":"2026-03-05T17:34:12.897408","MEAN_MOTION":13.29341975,"ECCENTRICITY":0.0001039,"INCLINATION":50.0072,"RA_OF_ASC_NODE":216.6753,"ARG_OF_PERICENTER":139.2239,"MEAN_ANOMALY":220.8711,"EPHEMERIS_TYPE":0,"CLASSIFICATION_TYPE":"U","NORAD_CAT_ID":65307,"ELEMENT_SET_NO":999,"REV_AT_EPOCH":2594,"BSTAR":4.6991e-5,"MEAN_MOTION_DOT":-1.02e-6,"MEAN_MOTION_DDOT":0},{"OBJECT_NAME":"HULIANWANG DIGUI-76","OBJECT_ID":"2025-187D","EPOCH":"2026-03-05T17:10:25.889952","MEAN_MOTION":13.29339337,"ECCENTRICITY":0.0001036,"INCLINATION":49.9996,"RA_OF_ASC_NODE":217.128,"ARG_OF_PERICENTER":137.3341,"MEAN_ANOMALY":222.7612,"EPHEMERIS_TYPE":0,"CLASSIFICATION_TYPE":"U","NORAD_CAT_ID":65308,"ELEMENT_SET_NO":999,"REV_AT_EPOCH":2593,"BSTAR":7.9779e-5,"MEAN_MOTION_DOT":-8.7e-7,"MEAN_MOTION_DDOT":0},{"OBJECT_NAME":"HULIANWANG DIGUI-77","OBJECT_ID":"2025-187E","EPOCH":"2026-03-05T18:46:26.838048","MEAN_MOTION":13.29341223,"ECCENTRICITY":0.0001073,"INCLINATION":50.003,"RA_OF_ASC_NODE":216.8683,"ARG_OF_PERICENTER":137.7901,"MEAN_ANOMALY":222.3054,"EPHEMERIS_TYPE":0,"CLASSIFICATION_TYPE":"U","NORAD_CAT_ID":65309,"ELEMENT_SET_NO":999,"REV_AT_EPOCH":2594,"BSTAR":7.0231e-5,"MEAN_MOTION_DOT":-9.1e-7,"MEAN_MOTION_DDOT":0},{"OBJECT_NAME":"HULIANWANG DIGUI-78","OBJECT_ID":"2025-187F","EPOCH":"2026-03-05T17:46:18.030144","MEAN_MOTION":13.29341693,"ECCENTRICITY":0.0001025,"INCLINATION":50.0096,"RA_OF_ASC_NODE":216.7569,"ARG_OF_PERICENTER":140.8186,"MEAN_ANOMALY":219.276,"EPHEMERIS_TYPE":0,"CLASSIFICATION_TYPE":"U","NORAD_CAT_ID":65310,"ELEMENT_SET_NO":999,"REV_AT_EPOCH":2594,"BSTAR":5.0913e-5,"MEAN_MOTION_DOT":-1.0e-6,"MEAN_MOTION_DDOT":0},{"OBJECT_NAME":"HULIANWANG DIGUI-79","OBJECT_ID":"2025-187G","EPOCH":"2026-03-05T17:22:01.230240","MEAN_MOTION":13.29343099,"ECCENTRICITY":0.0001032,"INCLINATION":50.0026,"RA_OF_ASC_NODE":217.2158,"ARG_OF_PERICENTER":137.752,"MEAN_ANOMALY":222.3431,"EPHEMERIS_TYPE":0,"CLASSIFICATION_TYPE":"U","NORAD_CAT_ID":65311,"ELEMENT_SET_NO":999,"REV_AT_EPOCH":2593,"BSTAR":5.1855e-5,"MEAN_MOTION_DOT":-1.0e-6,"MEAN_MOTION_DDOT":0},{"OBJECT_NAME":"HULIANWANG DIGUI-80","OBJECT_ID":"2025-187H","EPOCH":"2026-03-05T18:34:22.507104","MEAN_MOTION":13.29341313,"ECCENTRICITY":0.0001062,"INCLINATION":50.0016,"RA_OF_ASC_NODE":216.8031,"ARG_OF_PERICENTER":137.8732,"MEAN_ANOMALY":222.2222,"EPHEMERIS_TYPE":0,"CLASSIFICATION_TYPE":"U","NORAD_CAT_ID":65312,"ELEMENT_SET_NO":999,"REV_AT_EPOCH":2594,"BSTAR":8.1424e-5,"MEAN_MOTION_DOT":-8.6e-7,"MEAN_MOTION_DDOT":0}]
